HST                     
1 20580U 90037B   24110.12069755  .00011555  00000+0  56237-3 0  9999
2 20580  28.4695  20.6181 0002671 107.1246 252.9639 15.16800468668315
POLAR                   
1 23802U 96013A   24108.82508158  .00000177  00000+0  00000+0 0  9999
2 23802  79.0867 235.2268 5847870 235.8249  54.5681  1.29846879134599
SWAS                    
1 25560U 98071A   24110.20634277  .00006981  00000+0  57337-3 0  9993
2 25560  69.8972  88.2857 0006262 353.0134   7.0937 14.99581013378807
CXO                     
1 25867U 99040B   24112.33278554  .00000940  00000+0  00000+0 0  9998
2 25867  39.9529 159.3198 8942329 292.4515   0.0893  0.37815290 25505
XMM-NEWTON              
1 25989U 99066A   24104.40549241  .00000006  00000+0  00000+0 0  9997
2 25989  68.0299 293.8034 5211846  78.1754 321.8645  0.50133296 19027
TERRA                   
1 25994U 99068A   24110.49381845  .00001592  00000+0  34351-3 0  9996
2 25994  98.0522 175.6985 0002420 152.4138 332.5441 14.59669714294605
CLUSTER II-FM7 (SAMBA)  
1 26410U 00041A   24108.28159548 -.00000174  00000+0  00000+0 0  9996
2 26410 138.6604 357.0840 7330808 211.9246   0.5940  0.44216231 16787
CLUSTER II-FM6 (SALSA)  
1 26411U 00041B   24112.75465336  .00000873  00000+0  00000+0 0  9994
2 26411 147.2739  19.5677 8906903 234.4361   0.6384  0.44237645 27861
CLUSTER II-FM5 (RUMBA)  
1 26463U 00045A   24112.79479691  .00000757  00000+0  00000+0 0  9999
2 26463 149.3994  15.3674 8429334 230.6481   0.6501  0.44218490 29134
CLUSTER II-FM8 (TANGO)  
1 26464U 00045B   24112.80605565  .00000161  00000+0  00000+0 0  9992
2 26464 138.6960 357.1675 7340631 212.0669   0.6596  0.44222474 64477
ODIN                    
1 26702U 01007A   24109.95655931  .00019190  00000+0  87491-3 0  9995
2 26702  97.4872 125.4509 0009693 124.0471 236.1686 15.20646160267893
TIMED                   
1 26998U 01055B   24109.87786138  .00004794  00000+0  48726-3 0  9992
2 26998  74.0742  19.8524 0000530 225.0144 135.0996 14.91084257212981
INTEGRAL                
1 27540U 02048A   24110.18320647  .00000415  00000+0  00000+0 0  9999
2 27540  88.6076  23.5852 8661590 283.6339 330.3218  0.37579190 23667
CORIOLIS                
1 27640U 03001A   24109.94580946  .00000467  00000+0  24231-3 0  9995
2 27640  98.7153 118.1106 0013491 329.8193  30.2205 14.19437559102233
SORCE                   
1 27651U 03004A   24110.17150334  .00008390  00000+0  77259-3 0  9992
2 27651  39.9939  55.4594 0020507 183.9255 176.1378 14.94526822153436
MOST                    
1 27843U 03031D   24110.54138208  .00000387  00000+0  19876-3 0  9991
2 27843  98.7082 118.3565 0010206  15.7169 344.4323 14.20932558 78699
SCISAT 1                
1 27858U 03036A   24110.56449275  .00002597  00000+0  35599-3 0  9998
2 27858  73.9322 295.7714 0007845 187.0871 173.0195 14.79007040114755
SWIFT                   
1 28485U 04047A   24110.49879744  .00025023  00000+0  11878-2 0  9990
2 28485  20.5554 240.8788 0007964 236.6871 123.2803 15.17352921 65394
CLOUDSAT                
1 29107U 06016A   24109.91772820  .00004666  00000+0  59300-3 0  9995
2 29107  98.4051  92.5303 0005844  14.1105 346.0268 14.82146768957381
CALIPSO                 
1 29108U 06016B   24109.96364586  .00004298  00000+0  80279-3 0  9997
2 29108  98.4149  90.3867 0001346  93.4173 266.7183 14.65465450957274
HINODE (SOLAR-B)        
1 29479U 06041A   24109.91103162  .00002506  00000+0  46298-3 0  9995
2 29479  98.0930 126.0698 0016557 267.6428  92.2881 14.66226507939092
SJ-6C                   
1 29505U 06046A   24110.49319518  .00013673  00000+0  10351-2 0  9996
2 29505  97.7263 137.7478 0003426 325.2534  34.8467 15.02418056953341
SJ-6D                   
1 29506U 06046B   24110.50097300  .00004495  00000+0  39590-3 0  9990
2 29506  97.7456 135.9619 0003527 114.6066 245.5523 14.96970845952552
FGRST (GLAST)           
1 33053U 08029A   24110.54561313  .00008276  00000+0  39978-3 0  9990
2 33053  25.5818 251.9018 0010963  69.9173 290.2543 15.16250702875885
WISE                    
1 36119U 09071A   24110.10397815  .00058832  00000+0  78254-3 0  9993
2 36119  97.1550 146.1526 0001728  69.8160 290.3282 15.57993859799048
SDO                     
1 36395U 10005A   24108.52203257 -.00000048  00000+0  00000+0 0  9994
2 36395  33.0017  98.5287 0001465 227.8550 326.0007  1.00274279 52137
CRYOSAT 2               
1 36508U 10013A   24109.94742526  .00000722  00000+0  17838-3 0  9992
2 36508  92.0290  86.6435 0005173 108.2075 251.9696 14.51903741743565
X-SAT                   
1 37389U 11015C   24110.55520871  .00000514  00000+0  23827-3 0  9993
2 37389  98.2951 117.7659 0015035 135.7231 224.5155 14.24665441675883
GCOM-W1 (SHIZUKU)       
1 38337U 12025A   24109.81240179  .00002121  00000+0  48067-3 0  9995
2 38337  98.1991  50.7457 0001625  91.0718 322.9307 14.57102513634076
NUSTAR                  
1 38358U 12031A   24109.91668981  .00002634  00000+0  16535-3 0  9995
2 38358   6.0262 139.0795 0010429 343.3352  60.9024 14.95409376645394
NEOSSAT                 
1 39089U 13009D   24109.50374936  .00000682  00000+0  25347-3 0  9994
2 39089  98.4062 298.4370 0012378  81.5584 278.7004 14.35115127583447
BRITE-AUSTRIA           
1 39091U 13009F   24109.53000724  .00000734  00000+0  26859-3 0  9998
2 39091  98.3872 298.7254 0011548  79.3934 280.8552 14.35744368583700
IRIS                    
1 39197U 13033A   24110.08311243  .00003684  00000+0  47146-3 0  9994
2 39197  97.9666 301.0377 0026436  16.0892 344.1154 14.81719560583350
HISAKI (SPRINT-A)       
1 39253U 13049A   24110.53314793  .00000246  00000+0  24595-3 0  9991
2 39253  29.7201 269.1281 0136661 103.7481 257.8342 13.55383102525386
CASSIOPE                
1 39265U 13055A   24110.18322465  .00040148  00000+0  85261-3 0  9999
2 39265  80.9526 261.3650 0509911  90.1695 275.7921 14.67178633549710
STSAT-3                 
1 39422U 13066G   24110.51212098  .00007357  00000+0  68645-3 0  9995
2 39422  97.5173  92.4557 0020566 191.2419 168.8345 14.94324619566052
SWARM B                 
1 39451U 13067A   24109.92032388  .00008355  00000+0  38996-3 0  9998
2 39451  87.7540 220.1841 0002454  97.3677 262.7846 15.19702424562998
SWARM A                 
1 39452U 13067B   24109.89555884  .00011121  00000+0  36566-3 0  9992
2 39452  87.3471 344.4317 0002408  77.5386 282.6134 15.31407496584688
SWARM C                 
1 39453U 13067C   24109.89549423  .00011284  00000+0  37103-3 0  9993
2 39453  87.3467 343.0265 0002415  77.9808 282.1713 15.31408619584644
BRITE-CA1 (TORONTO)     
1 40020U 14033L   24110.38592139  .00003177  00000+0  52164-3 0  9993
2 40020  97.8671 249.6200 0082279 279.9880  79.2048 14.69121364526347
OCO 2                   
1 40059U 14035A   24110.14226224  .00001917  00000+0  43519-3 0  9994
2 40059  98.1985  51.8306 0001080  90.0265 270.1057 14.57142972521152
BRITE-PL2 (HEWELIUSZ)   
1 40119U 14049B   24110.26995366  .00005636  00000+0  61251-3 0  9994
2 40119  97.8775 210.2359 0015933 194.0438 166.0338 14.88394724523908
RESURS P2               
1 40360U 14087A   24110.53515764  .00043724  00000+0  63781-3 0  9994
2 40360  97.1522 196.8793 0007612 149.1342 211.0362 15.55532484521931
MMS 1                   
1 40482U 15011A   24109.00001157 -.00001151  00000+0  00000+0 0  9993
2 40482  44.1994  16.1387 9123903 142.5029  96.9851  0.28383998  1332
MMS 2                   
1 40483U 15011B   24109.00001157 -.00001151  00000+0  00000+0 0  9994
2 40483  44.1944  16.1316 9123930 142.5100  96.9800  0.28384007  1336
MMS 3                   
1 40484U 15011C   24109.00001157 -.00001151  00000+0  00000+0 0  9995
2 40484  44.2129  16.1156 9124450 142.5300  96.9366  0.28380582  1336
MMS 4                   
1 40485U 15011D   24109.00001157 -.00001151  00000+0  00000+0 0  9996
2 40485  44.2121  16.1168 9123331 142.5291  96.9356  0.28380589  1301
ASTROSAT                
1 40930U 15052A   24110.38487761  .00004189  00000+0  47053-3 0  9994
2 40930   5.9981  59.8175 0008995 315.0566  44.8834 14.78704467462744
DAMPE                   
1 41173U 15078A   24110.54815218  .00003853  00000+0  14856-3 0  9994
2 41173  97.4290 104.3387 0012749 358.1534   1.9656 15.26859728464034
PISAT                   
1 41784U 16059B   24109.83300789  .00003125  00000+0  57927-3 0  9992
2 41784  97.8393 134.5502 0030379 199.3295 160.6760 14.65653937403962
HXMT (HUIYAN)           
1 42758U 17034A   24110.51334686  .00017135  00000+0  95395-3 0  9995
2 42758  43.0139 239.2633 0014762 152.8821 207.2799 15.13285442377966
FLYING LAPTOP           
1 42831U 17042G   24110.14665569  .00004360  00000+0  40595-3 0  9990
2 42831  97.3862 294.5334 0011347 276.0591  83.9337 14.94726163368318
ZHANGZHENG-1 (CSES)     
1 43194U 18015C   24110.52242998  .00026801  00000+0  12084-2 0  9998
2 43194  97.6009 253.6948 0008765 332.5151  27.5619 15.20968065344774
SALSAT                  
1 46495U 20068K   24109.87031183  .00012199  00000+0  71196-3 0  9999
2 46495  97.8113  67.7389 0015197 148.9844 211.2286 15.11997830195348
IXPE                    
1 49954U 21121A   24109.91668981  .00009197  00000+0  70180-3 0  9996
2 49954   0.2296 112.9950 0009336 119.6135 203.7569 14.97327418  3995
